JILIN-1 GAOFEN 03D51    
1 54252U 22155B   26196.19376615  .00038262  00000+0  39228-3 0  9992
2 54252  97.6257 343.2158 0004371 231.8633 128.2232 15.64864062204124
JILIN-1 GAOFEN 03D53    
1 54253U 22155C   26196.17218591  .00021685  00000+0  33144-3 0  9991
2 54253  97.6249 338.3950 0004837 251.3624 108.7104 15.54418133203836
JILIN-1 GAOFEN 03D52    
1 54255U 22155E   26196.18205718  .00031862  00000+0  36533-3 0  9994
2 54255  97.6231 341.4143 0003717 247.1384 112.9481 15.62034870204073
JILIN-1 GAOFEN 03D50    
1 54690U 22167J   26196.16331024  .00006133  00000+0  18278-3 0  9997
2 54690  97.6849   5.1639 0005218  21.7875 338.3588 15.35061013199641
JILIN-1 GAOFEN 03D47    
1 54692U 22167L   26196.16719043  .00005864  00000+0  17879-3 0  9996
2 54692  97.6946   6.9058 0007808  29.6431 330.5252 15.34343276199631
JILIN-1 GAOFEN 03D49    
1 54694U 22167N   26196.18289089  .00007217  00000+0  19508-3 0  9997
2 54694  97.6823   7.5790 0006052  49.3771 310.7999 15.38041458199799
JILIN-1 GAOFEN 03D48    
1 54695U 22167P   26196.22102139  .00006353  00000+0  18486-3 0  9997
2 54695  97.6894   6.9449 0006458  30.2042 329.9572 15.35792829199692
JILIN GAOFEN OBJECT A   
1 68691U 26080A   26194.01217545  .00003313  00000+0  21234-3 0  9997
2 68691  97.6615 269.4933 0011381 343.1565  16.9284 15.09189243 13559
JILIN GAOFEN OBJECT B   
1 68692U 26080B   26196.04952240  .00002183  00000+0  14148-3 0  9991
2 68692  97.6591 271.5425 0014866 313.6524  46.3471 15.09103524 13868
JILIN GAOFEN OBJECT C   
1 68693U 26080C   26194.01087059  .00003389  00000+0  21711-3 0  9997
2 68693  97.6598 269.4765 0012210 323.0944  36.9443 15.09172584 13553
JILIN GAOFEN OBJECT D   
1 68694U 26080D   26196.18298325  .00002075  00000+0  13515-3 0  9992
2 68694  97.6654 271.7495 0016463 325.5315  34.4844 15.08959526 13866
JILIN GAOFEN OBJECT E   
1 68695U 26080E   26196.16467166  .00003021  00000+0  19529-3 0  9995
2 68695  97.6632 271.7515 0013835 335.8243  24.2335 15.08920146 13846
JILIN GAOFEN OBJECT F   
1 68696U 26080F   26196.16369240  .00003105  00000+0  20073-3 0  9999
2 68696  97.6604 271.7191 0012544 338.6204  21.4499 15.08903633 13842
JILIN GAOFEN OBJECT G   
1 68697U 26080G   26196.14977446  .00003014  00000+0  19335-3 0  9999
2 68697  97.6655 271.7893 0013394 336.3303  23.7307 15.09204657 13841
JILIN GAOFEN OBJECT H   
1 68698U 26080H   26194.82163383  .00003263  00000+0  20933-3 0  9992
2 68698  97.6642 270.4535 0014263 342.4470  17.6264 15.09126923 13647
