{"fetched_at":"2026-07-15T17:47:18.005Z","source":"https://celestrak.org/NORAD/elements/gp.php?NAME=JILIN&FORMAT=JSON","constellation":"jilin-1-gaofen","records":[{"OBJECT_NAME":"JILIN-1 GAOFEN 03D51","OBJECT_ID":"2022-155B","EPOCH":"2026-07-15T04:39:01.395360","CLASSIFICATION_TYPE":"U","MEAN_MOTION":15.64864062,"ECCENTRICITY":0.0004371,"INCLINATION":97.6257,"RA_OF_ASC_NODE":343.2158,"ARG_OF_PERICENTER":231.8633,"MEAN_ANOMALY":128.2232,"EPHEMERIS_TYPE":0,"NORAD_CAT_ID":54252,"ELEMENT_SET_NO":999,"REV_AT_EPOCH":20412,"BSTAR":0.00039228,"MEAN_MOTION_DOT":0.00038262,"MEAN_MOTION_DDOT":0},{"OBJECT_NAME":"JILIN-1 GAOFEN 03D53","OBJECT_ID":"2022-155C","EPOCH":"2026-07-15T04:07:56.862624","CLASSIFICATION_TYPE":"U","MEAN_MOTION":15.54418133,"ECCENTRICITY":0.0004837,"INCLINATION":97.6249,"RA_OF_ASC_NODE":338.395,"ARG_OF_PERICENTER":251.3624,"MEAN_ANOMALY":108.7104,"EPHEMERIS_TYPE":0,"NORAD_CAT_ID":54253,"ELEMENT_SET_NO":999,"REV_AT_EPOCH":20383,"BSTAR":0.00033144,"MEAN_MOTION_DOT":0.00021685,"MEAN_MOTION_DDOT":0},{"OBJECT_NAME":"JILIN-1 GAOFEN 03D52","OBJECT_ID":"2022-155E","EPOCH":"2026-07-15T04:22:09.740352","CLASSIFICATION_TYPE":"U","MEAN_MOTION":15.6203487,"ECCENTRICITY":0.0003717,"INCLINATION":97.6231,"RA_OF_ASC_NODE":341.4143,"ARG_OF_PERICENTER":247.1384,"MEAN_ANOMALY":112.9481,"EPHEMERIS_TYPE":0,"NORAD_CAT_ID":54255,"ELEMENT_SET_NO":999,"REV_AT_EPOCH":20407,"BSTAR":0.00036533,"MEAN_MOTION_DOT":0.00031862,"MEAN_MOTION_DDOT":0},{"OBJECT_NAME":"JILIN-1 GAOFEN 03D50","OBJECT_ID":"2022-167J","EPOCH":"2026-07-15T03:55:10.004736","CLASSIFICATION_TYPE":"U","MEAN_MOTION":15.35061013,"ECCENTRICITY":0.0005218,"INCLINATION":97.6849,"RA_OF_ASC_NODE":5.1639,"ARG_OF_PERICENTER":21.7875,"MEAN_ANOMALY":338.3588,"EPHEMERIS_TYPE":0,"NORAD_CAT_ID":54690,"ELEMENT_SET_NO":999,"REV_AT_EPOCH":19964,"BSTAR":0.00018278,"MEAN_MOTION_DOT":0.00006133,"MEAN_MOTION_DDOT":0},{"OBJECT_NAME":"JILIN-1 GAOFEN 03D47","OBJECT_ID":"2022-167L","EPOCH":"2026-07-15T04:00:45.253152","CLASSIFICATION_TYPE":"U","MEAN_MOTION":15.34343276,"ECCENTRICITY":0.0007808,"INCLINATION":97.6946,"RA_OF_ASC_NODE":6.9058,"ARG_OF_PERICENTER":29.6431,"MEAN_ANOMALY":330.5252,"EPHEMERIS_TYPE":0,"NORAD_CAT_ID":54692,"ELEMENT_SET_NO":999,"REV_AT_EPOCH":19963,"BSTAR":0.00017879,"MEAN_MOTION_DOT":0.00005864,"MEAN_MOTION_DDOT":0},{"OBJECT_NAME":"JILIN-1 GAOFEN 03D49","OBJECT_ID":"2022-167N","EPOCH":"2026-07-15T04:23:21.772896","CLASSIFICATION_TYPE":"U","MEAN_MOTION":15.38041458,"ECCENTRICITY":0.0006052,"INCLINATION":97.6823,"RA_OF_ASC_NODE":7.579,"ARG_OF_PERICENTER":49.3771,"MEAN_ANOMALY":310.7999,"EPHEMERIS_TYPE":0,"NORAD_CAT_ID":54694,"ELEMENT_SET_NO":999,"REV_AT_EPOCH":19979,"BSTAR":0.00019508,"MEAN_MOTION_DOT":0.00007217,"MEAN_MOTION_DDOT":0},{"OBJECT_NAME":"JILIN-1 GAOFEN 03D48","OBJECT_ID":"2022-167P","EPOCH":"2026-07-15T05:18:16.248096","CLASSIFICATION_TYPE":"U","MEAN_MOTION":15.35792829,"ECCENTRICITY":0.0006458,"INCLINATION":97.6894,"RA_OF_ASC_NODE":6.9449,"ARG_OF_PERICENTER":30.2042,"MEAN_ANOMALY":329.9572,"EPHEMERIS_TYPE":0,"NORAD_CAT_ID":54695,"ELEMENT_SET_NO":999,"REV_AT_EPOCH":19969,"BSTAR":0.00018486,"MEAN_MOTION_DOT":0.00006353,"MEAN_MOTION_DDOT":0},{"OBJECT_NAME":"JILIN GAOFEN OBJECT A","OBJECT_ID":"2026-080A","EPOCH":"2026-07-13T00:17:31.958880","CLASSIFICATION_TYPE":"U","MEAN_MOTION":15.09189243,"ECCENTRICITY":0.00113812,"INCLINATION":97.6615,"RA_OF_ASC_NODE":269.4933,"ARG_OF_PERICENTER":343.1565,"MEAN_ANOMALY":16.9284,"EPHEMERIS_TYPE":0,"NORAD_CAT_ID":68691,"ELEMENT_SET_NO":999,"REV_AT_EPOCH":1355,"BSTAR":0.0002123377,"MEAN_MOTION_DOT":0.00003313,"MEAN_MOTION_DDOT":0},{"OBJECT_NAME":"JILIN GAOFEN OBJECT B","OBJECT_ID":"2026-080B","EPOCH":"2026-07-15T01:11:18.735360","CLASSIFICATION_TYPE":"U","MEAN_MOTION":15.09103524,"ECCENTRICITY":0.0014866,"INCLINATION":97.6591,"RA_OF_ASC_NODE":271.5425,"ARG_OF_PERICENTER":313.6524,"MEAN_ANOMALY":46.3471,"EPHEMERIS_TYPE":0,"NORAD_CAT_ID":68692,"ELEMENT_SET_NO":999,"REV_AT_EPOCH":1386,"BSTAR":0.00014148,"MEAN_MOTION_DOT":0.00002183,"MEAN_MOTION_DDOT":0},{"OBJECT_NAME":"JILIN GAOFEN OBJECT C","OBJECT_ID":"2026-080C","EPOCH":"2026-07-13T00:15:39.218976","CLASSIFICATION_TYPE":"U","MEAN_MOTION":15.09172584,"ECCENTRICITY":0.00122108,"INCLINATION":97.6598,"RA_OF_ASC_NODE":269.4765,"ARG_OF_PERICENTER":323.0944,"MEAN_ANOMALY":36.9443,"EPHEMERIS_TYPE":0,"NORAD_CAT_ID":68693,"ELEMENT_SET_NO":999,"REV_AT_EPOCH":1355,"BSTAR":0.00021711177,"MEAN_MOTION_DOT":0.00003389,"MEAN_MOTION_DDOT":0},{"OBJECT_NAME":"JILIN GAOFEN OBJECT D","OBJECT_ID":"2026-080D","EPOCH":"2026-07-15T04:23:29.752800","CLASSIFICATION_TYPE":"U","MEAN_MOTION":15.08959526,"ECCENTRICITY":0.0016463,"INCLINATION":97.6654,"RA_OF_ASC_NODE":271.7495,"ARG_OF_PERICENTER":325.5315,"MEAN_ANOMALY":34.4844,"EPHEMERIS_TYPE":0,"NORAD_CAT_ID":68694,"ELEMENT_SET_NO":999,"REV_AT_EPOCH":1386,"BSTAR":0.00013515,"MEAN_MOTION_DOT":0.00002075,"MEAN_MOTION_DDOT":0},{"OBJECT_NAME":"JILIN GAOFEN OBJECT E","OBJECT_ID":"2026-080E","EPOCH":"2026-07-15T03:57:07.631424","CLASSIFICATION_TYPE":"U","MEAN_MOTION":15.08920146,"ECCENTRICITY":0.0013835,"INCLINATION":97.6632,"RA_OF_ASC_NODE":271.7515,"ARG_OF_PERICENTER":335.8243,"MEAN_ANOMALY":24.2335,"EPHEMERIS_TYPE":0,"NORAD_CAT_ID":68695,"ELEMENT_SET_NO":999,"REV_AT_EPOCH":1384,"BSTAR":0.00019529,"MEAN_MOTION_DOT":0.00003021,"MEAN_MOTION_DDOT":0},{"OBJECT_NAME":"JILIN GAOFEN OBJECT F","OBJECT_ID":"2026-080F","EPOCH":"2026-07-15T03:55:43.023360","CLASSIFICATION_TYPE":"U","MEAN_MOTION":15.08903633,"ECCENTRICITY":0.0012544,"INCLINATION":97.6604,"RA_OF_ASC_NODE":271.7191,"ARG_OF_PERICENTER":338.6204,"MEAN_ANOMALY":21.4499,"EPHEMERIS_TYPE":0,"NORAD_CAT_ID":68696,"ELEMENT_SET_NO":999,"REV_AT_EPOCH":1384,"BSTAR":0.00020073,"MEAN_MOTION_DOT":0.00003105,"MEAN_MOTION_DDOT":0},{"OBJECT_NAME":"JILIN GAOFEN OBJECT G","OBJECT_ID":"2026-080G","EPOCH":"2026-07-15T03:35:40.513344","CLASSIFICATION_TYPE":"U","MEAN_MOTION":15.09204657,"ECCENTRICITY":0.0013394,"INCLINATION":97.6655,"RA_OF_ASC_NODE":271.7893,"ARG_OF_PERICENTER":336.3303,"MEAN_ANOMALY":23.7307,"EPHEMERIS_TYPE":0,"NORAD_CAT_ID":68697,"ELEMENT_SET_NO":999,"REV_AT_EPOCH":1384,"BSTAR":0.00019335,"MEAN_MOTION_DOT":0.00003014,"MEAN_MOTION_DDOT":0},{"OBJECT_NAME":"JILIN GAOFEN OBJECT H","OBJECT_ID":"2026-080H","EPOCH":"2026-07-13T19:43:09.162912","CLASSIFICATION_TYPE":"U","MEAN_MOTION":15.09126923,"ECCENTRICITY":0.00142635,"INCLINATION":97.6642,"RA_OF_ASC_NODE":270.4535,"ARG_OF_PERICENTER":342.447,"MEAN_ANOMALY":17.6264,"EPHEMERIS_TYPE":0,"NORAD_CAT_ID":68698,"ELEMENT_SET_NO":999,"REV_AT_EPOCH":1364,"BSTAR":0.00020933195,"MEAN_MOTION_DOT":0.00003263,"MEAN_MOTION_DDOT":0}]}
